[{"OBJECT_NAME":"SKYKRAFT-1A","OBJECT_ID":"2023-001AX","EPOCH":"2026-03-09T17:03:19.828224","MEAN_MOTION":15.28083228,"ECCENTRICITY":0.00112767,"INCLINATION":97.3349,"RA_OF_ASC_NODE":127.629,"ARG_OF_PERICENTER":121.5092,"MEAN_ANOMALY":238.7251,"EPHEMERIS_TYPE":0,"CLASSIFICATION_TYPE":"U","NORAD_CAT_ID":55054,"ELEMENT_SET_NO":999,"REV_AT_EPOCH":17652,"BSTAR":0.0003006872,"MEAN_MOTION_DOT":8.177e-5,"MEAN_MOTION_DDOT":0},{"OBJECT_NAME":"STARLINK-31723","OBJECT_ID":"2024-074V","EPOCH":"2026-03-09T03:50:56.291136","MEAN_MOTION":15.27587631,"ECCENTRICITY":0.00013702,"INCLINATION":43.0038,"RA_OF_ASC_NODE":346.4895,"ARG_OF_PERICENTER":262.8323,"MEAN_ANOMALY":97.2372,"EPHEMERIS_TYPE":0,"CLASSIFICATION_TYPE":"U","NORAD_CAT_ID":59553,"ELEMENT_SET_NO":999,"REV_AT_EPOCH":10593,"BSTAR":-5.2543731e-5,"MEAN_MOTION_DOT":-1.708e-5,"MEAN_MOTION_DDOT":0}]
